QPS-SAR-2 IZANAMI       
1 47485U 21006CA  23316.75505092  .00071947  00000+0  16027-2 0  9990
2 47485  97.3676  15.5014 0004502 269.0219  91.0513 15.43341175155503
CELESTIS-17 & SHERPA-FX1
1 47486U 21006CB  23316.72104128  .00005117  00000+0  25998-3 0  9997
2 47486  97.3657   6.3161 0007624 312.0420  48.0164 15.17283668154927
ASTROCAST-0103          
1 47487U 21006CC  23316.40645691  .00007492  00000+0  33561-3 0  9991
2 47487  97.3850   9.0239 0006871 322.8523  37.2237 15.21516053154984
ASTROCAST-0102          
1 47488U 21006CD  23316.11049886  .00011408  00000+0  50465-3 0  9998
2 47488  97.3770   8.0268 0007576 301.1837  58.8656 15.21816442154932
FLOCK 4S-39             
1 47490U 21006CF  23316.41754836  .00027212  00000+0  78209-3 0  9998
2 47490  97.3758  15.5676 0004972 276.7547  83.3131 15.35777062155424
FLOCK 4S-4              
1 47491U 21006CG  23316.41232340  .00024420  00000+0  71178-3 0  9996
2 47491  97.3621  13.9312 0004973 262.1744  97.8935 15.35356103155423
FLOCK 4S-17             
1 47492U 21006CH  23316.43151756  .00022254  00000+0  64243-3 0  9998
2 47492  97.3790  15.6976 0004816 272.8960  87.1733 15.35679137155423
LEMUR-2-MANGO1          
1 47493U 21006CJ  23316.71477051  .00065349  00000+0  15517-2 0  9990
2 47493  97.3693  15.1706 0006249 271.6505  88.4026 15.41444222155494
FLOCK 4S-3              
1 47494U 21006CK  23316.17465058  .00050478  00000+0  78920-3 0  9990
2 47494  97.3505  17.0990 0005520 268.6851  91.3770 15.53611224155618
FLOCK 4S-27             
1 47495U 21006CL  23316.10654984  .00019509  00000+0  61199-3 0  9992
2 47495  97.3608  12.5947 0006179 292.0225  68.0361 15.33066982155308
FLOCK 4S-18             
1 47496U 21006CM  23316.47501110  .00019856  00000+0  57849-3 0  9997
2 47496  97.3755  15.5418 0006426 269.1629  90.8878 15.35405763155432
FLOCK 4S-19             
1 47500U 21006CR  23316.13765399  .00020758  00000+0  60233-3 0  9991
2 47500  97.3735  15.1879 0006034 269.2271  90.8282 15.35525616155385
KEPLER-10 (BABY YODA)   
1 47501U 21006CS  23316.13523468  .00053996  00000+0  12290-2 0  9990
2 47501  97.3740  15.9177 0005034 262.2317  97.8359 15.42776161155422
HAWK-2C                 
1 47502U 21006CT  23316.40258045  .00007172  00000+0  32828-3 0  9992
2 47502  97.3671   6.9195 0007216 312.8256  47.2373 15.20785785154932
KEPLER-11 (DANEEL)      
1 47503U 21006CU  23316.71203608  .00019625  00000+0  75909-3 0  9995
2 47503  97.3687  10.1929 0005676 304.8042  55.2662 15.26235574155151
ION SCV-002             
1 47504U 21006CV  23316.55805770  .00006829  00000+0  32265-3 0  9996
2 47504  97.1443 340.4289 0016164 269.2389  90.6995 15.19599812155040
HAWK-2A                 
1 47505U 21006CW  23316.66595045  .00007374  00000+0  33741-3 0  9996
2 47505  97.3668   7.2876 0007101 310.8910  49.1710 15.20789205154970
ICEYE-X9                
1 47506U 21006CX  23316.78799852  .00028563  00000+0  11181-2 0  9998
2 47506  97.3705   9.2388 0005980 300.0928  59.9717 15.25756899155072
XR-1 (ICEYE-X10)        
1 47507U 21006CY  23316.39502421  .00011584  00000+0  52592-3 0  9997
2 47507  97.3752  11.1052 0012189 302.1011  57.9041 15.20879404155149
HAWK-2B                 
1 47508U 21006CZ  23316.66607488  .00007608  00000+0  34797-3 0  9996
2 47508  97.3667   7.1759 0007327 311.8435  48.2175 15.20791656154972
GHGSAT-C2               
1 47509U 21006DA  23316.71105092  .00010040  00000+0  46098-3 0  9998
2 47509  97.3583   6.4680 0006173 309.8824  50.1868 15.20577894154991
ICEYE-X8                
1 47510U 21006DB  23316.80256720  .00017039  00000+0  67923-3 0  9990
2 47510  97.3706   9.4277 0005232 297.9044  62.1664 15.25260841155119
LEMUR-2-RUAIRI-EILIDH   
1 47511U 21006DC  23316.13455193  .00079240  00000+0  15186-2 0  9997
2 47511  97.3674  15.3704 0002850 253.4170 106.6767 15.47736972155468
FLOCK 4S-28             
1 47514U 21006DE  23316.43124213  .00019052  00000+0  55645-3 0  9999
2 47514  97.3637  13.8196 0004095 274.5953  85.4823 15.35346381156370
FLOCK 4S-5              
1 47515U 21006DF  23316.12416050  .00022492  00000+0  64370-3 0  9996
2 47515  97.3631  13.5169 0005061 281.7270  78.3406 15.35947024155376
FLOCK 4S-16             
1 47516U 21006DG  23316.16437864  .00054639  00000+0  82844-3 0  9991
2 47516  97.3715  20.3370 0006390 283.2766  76.7775 15.54434592156681
ASTROCAST-0105          
1 47517U 21006DH  23316.10039992  .00008212  00000+0  38501-3 0  9993
2 47517  97.3643   5.7846 0005259 320.8744  39.2110 15.19920584154861
FLOCK 4S-6              
1 47518U 21006DJ  23316.79019828  .00026205  00000+0  75177-3 0  9997
2 47518  97.3655  14.3751 0004491 283.7660  76.3084 15.35843485156447
ASTROCAST-0104          
1 47519U 21006DK  23316.38965692  .00007726  00000+0  34531-3 0  9998
2 47519  97.3803   8.5132 0006276 293.3624  66.6952 15.21587316154976
FLOCK 4S-15             
1 47521U 21006DM  23316.73770857  .00065774  00000+0  10258-2 0  9993
2 47521  97.3708  19.2203 0004172 279.0151  81.0630 15.53622019156678
