OBJECT_NAME,OBJECT_ID,EPOCH,MEAN_MOTION,ECCENTRICITY,INCLINATION,RA_OF_ASC_NODE,ARG_OF_PERICENTER,MEAN_ANOMALY,EPHEMERIS_TYPE,CLASSIFICATION_TYPE,NORAD_CAT_ID,ELEMENT_SET_NO,REV_AT_EPOCH,BSTAR,MEAN_MOTION_DOT,MEAN_MOTION_DDOT
QPS-SAR-2 IZANAMI,2021-006CA,2023-11-12T18:07:16.399488,15.43341175,.0004502,97.3676,15.5014,269.0219,91.0513,0,U,47485,999,15550,.16027E-2,.71947E-3,0
CELESTIS-17 & SHERPA-FX1,2021-006CB,2023-11-12T17:18:17.966592,15.17283668,.0007624,97.3657,6.3161,312.0420,48.0164,0,U,47486,999,15492,.25998E-3,.5117E-4,0
ASTROCAST-0103,2021-006CC,2023-11-12T09:45:17.877024,15.21516053,.0006871,97.3850,9.0239,322.8523,37.2237,0,U,47487,999,15498,.33561E-3,.7492E-4,0
ASTROCAST-0102,2021-006CD,2023-11-12T02:39:07.101504,15.21816442,.0007576,97.3770,8.0268,301.1837,58.8656,0,U,47488,999,15493,.50465E-3,.11408E-3,0
FLOCK 4S-39,2021-006CF,2023-11-12T10:01:16.178304,15.35777062,.0004972,97.3758,15.5676,276.7547,83.3131,0,U,47490,999,15542,.78209E-3,.27212E-3,0
FLOCK 4S-4,2021-006CG,2023-11-12T09:53:44.741760,15.35356103,.0004973,97.3621,13.9312,262.1744,97.8935,0,U,47491,999,15542,.71178E-3,.2442E-3,0
FLOCK 4S-17,2021-006CH,2023-11-12T10:21:23.117184,15.35679137,.0004816,97.3790,15.6976,272.8960,87.1733,0,U,47492,999,15542,.64243E-3,.22254E-3,0
LEMUR-2-MANGO1,2021-006CJ,2023-11-12T17:09:16.172064,15.41444222,.0006249,97.3693,15.1706,271.6505,88.4026,0,U,47493,999,15549,.15517E-2,.65349E-3,0
FLOCK 4S-3,2021-006CK,2023-11-12T04:11:29.810112,15.53611224,.000552,97.3505,17.0990,268.6851,91.3770,0,U,47494,999,15561,.7892E-3,.50478E-3,0
FLOCK 4S-27,2021-006CL,2023-11-12T02:33:25.906176,15.33066982,.0006179,97.3608,12.5947,292.0225,68.0361,0,U,47495,999,15530,.61199E-3,.19509E-3,0
FLOCK 4S-18,2021-006CM,2023-11-12T11:24:00.959040,15.35405763,.0006426,97.3755,15.5418,269.1629,90.8878,0,U,47496,999,15543,.57849E-3,.19856E-3,0
FLOCK 4S-19,2021-006CR,2023-11-12T03:18:13.304736,15.35525616,.0006034,97.3735,15.1879,269.2271,90.8282,0,U,47500,999,15538,.60233E-3,.20758E-3,0
KEPLER-10 (BABY YODA),2021-006CS,2023-11-12T03:14:44.276352,15.42776161,.0005034,97.3740,15.9177,262.2317,97.8359,0,U,47501,999,15542,.1229E-2,.53996E-3,0
HAWK-2C,2021-006CT,2023-11-12T09:39:42.950880,15.20785785,.0007216,97.3671,6.9195,312.8256,47.2373,0,U,47502,999,15493,.32828E-3,.7172E-4,0
KEPLER-11 (DANEEL),2021-006CU,2023-11-12T17:05:19.917312,15.26235574,.0005676,97.3687,10.1929,304.8042,55.2662,0,U,47503,999,15515,.75909E-3,.19625E-3,0
ION SCV-002,2021-006CV,2023-11-12T13:23:36.185280,15.19599812,.0016164,97.1443,340.4289,269.2389,90.6995,0,U,47504,999,15504,.32265E-3,.6829E-4,0
HAWK-2A,2021-006CW,2023-11-12T15:58:58.118880,15.20789205,.0007101,97.3668,7.2876,310.8910,49.1710,0,U,47505,999,15497,.33741E-3,.7374E-4,0
ICEYE-X9,2021-006CX,2023-11-12T18:54:43.072128,15.25756899,.000598,97.3705,9.2388,300.0928,59.9717,0,U,47506,999,15507,.11181E-2,.28563E-3,0
XR-1 (ICEYE-X10),2021-006CY,2023-11-12T09:28:50.091744,15.20879404,.0012189,97.3752,11.1052,302.1011,57.9041,0,U,47507,999,15514,.52592E-3,.11584E-3,0
HAWK-2B,2021-006CZ,2023-11-12T15:59:08.869632,15.20791656,.0007327,97.3667,7.1759,311.8435,48.2175,0,U,47508,999,15497,.34797E-3,.7608E-4,0
GHGSAT-C2,2021-006DA,2023-11-12T17:03:54.799488,15.20577894,.0006173,97.3583,6.4680,309.8824,50.1868,0,U,47509,999,15499,.46098E-3,.1004E-3,0
ICEYE-X8,2021-006DB,2023-11-12T19:15:41.806080,15.25260841,.0005232,97.3706,9.4277,297.9044,62.1664,0,U,47510,999,15511,.67923E-3,.17039E-3,0
LEMUR-2-RUAIRI-EILIDH,2021-006DC,2023-11-12T03:13:45.286752,15.47736972,.000285,97.3674,15.3704,253.4170,106.6767,0,U,47511,999,15546,.15186E-2,.7924E-3,0
FLOCK 4S-28,2021-006DE,2023-11-12T10:20:59.320032,15.35346381,.0004095,97.3637,13.8196,274.5953,85.4823,0,U,47514,999,15637,.55645E-3,.19052E-3,0
FLOCK 4S-5,2021-006DF,2023-11-12T02:58:47.467200,15.35947024,.0005061,97.3631,13.5169,281.7270,78.3406,0,U,47515,999,15537,.6437E-3,.22492E-3,0
FLOCK 4S-16,2021-006DG,2023-11-12T03:56:42.314496,15.54434592,.000639,97.3715,20.3370,283.2766,76.7775,0,U,47516,999,15668,.82844E-3,.54639E-3,0
ASTROCAST-0105,2021-006DH,2023-11-12T02:24:34.553088,15.19920584,.0005259,97.3643,5.7846,320.8744,39.2110,0,U,47517,999,15486,.38501E-3,.8212E-4,0
FLOCK 4S-6,2021-006DJ,2023-11-12T18:57:53.131392,15.35843485,.0004491,97.3655,14.3751,283.7660,76.3084,0,U,47518,999,15644,.75177E-3,.26205E-3,0
ASTROCAST-0104,2021-006DK,2023-11-12T09:21:06.357888,15.21587316,.0006276,97.3803,8.5132,293.3624,66.6952,0,U,47519,999,15497,.34531E-3,.7726E-4,0
FLOCK 4S-15,2021-006DM,2023-11-12T17:42:18.020448,15.53622019,.0004172,97.3708,19.2203,279.0151,81.0630,0,U,47521,999,15667,.10258E-2,.65774E-3,0
